1 41765U 16057A   17348.15307008  .00004586  00000-0  60146-4 0  9993
2 41765  42.7853   5.3429 0002768  21.2597  66.2831 15.59813975 71070
